{
    "satellites": [
        {
            "name": "starlink374",
            "title": "Starlink-374 (G17-35)",
            "tle": [
                "1 70377C 26073AA  26105.42618056 -.02225400  00000+0 -88501-2 0  1057",
                "2 70377  97.2848 302.9830 0001953  71.7831  73.3175 15.87788116    13"
            ],
            "stdMag": 5,
            "noradId": "70377",
            "intDes": null,
            "tleUrl": "http://celestrak.org/NORAD/elements/supplemental/sup-gp.php?FILE=starlink&FORMAT=tle",
            "launchDate": "2026-04-07T02:50:39.000Z",
            "active": true,
            "batch": [
                {
                    "noradId": "70377",
                    "tle": [
                        "1 70377C 26073AA  26105.42618056 -.02225400  00000+0 -88501-2 0  1057",
                        "2 70377  97.2848 302.9830 0001953  71.7831  73.3175 15.87788116    13"
                    ]
                },
                {
                    "noradId": "70376",
                    "tle": [
                        "1 70376C 26073Z   26105.37965278 -.02239600  00000+0 -89029-2 0  1054",
                        "2 70376  97.2849 302.9321 0001761  88.0777 148.1100 15.87805095    10"
                    ]
                },
                {
                    "noradId": "70375",
                    "tle": [
                        "1 70375C 26073Y   26105.40743056 -.02249400  00000+0 -90684-2 0  1053",
                        "2 70375  97.2849 302.9600 0001621  75.3833 316.0855 15.87520218    10"
                    ]
                },
                {
                    "noradId": "70374",
                    "tle": [
                        "1 70374C 26073X   26105.39284722 -.02241200  00000+0 -90955-2 0  1051",
                        "2 70374  97.2849 302.9431 0001520  88.4591 216.5370 15.87378729    19"
                    ]
                },
                {
                    "noradId": "70373",
                    "tle": [
                        "1 70373C 26073W   26105.38381944 -.02242700  00000+0 -91590-2 0  1055",
                        "2 70373  97.2852 302.9320 0001746  88.6327 161.4153 15.87249021    17"
                    ]
                },
                {
                    "noradId": "70372",
                    "tle": [
                        "1 70372C 26073V   26105.42479167 -.02249600  00000+0 -93592-2 0  1054",
                        "2 70372  97.2852 302.9743 0001784  76.2915  44.4341 15.86866694    12"
                    ]
                },
                {
                    "noradId": "70371",
                    "tle": [
                        "1 70371C 26073U   26105.41576389 -.02264500  00000+0 -94820-2 0  1057",
                        "2 70371  97.2853 302.9631 0001512  69.9082 355.8191 15.86740748    14"
                    ]
                },
                {
                    "noradId": "70370",
                    "tle": [
                        "1 70370C 26073T   26105.44354167 -.02247200  00000+0 -95582-2 0  1051",
                        "2 70370  97.2855 302.9914 0001906  78.0063 142.9292 15.86402747    17"
                    ]
                },
                {
                    "noradId": "70369",
                    "tle": [
                        "1 70369C 26073S   26105.42201389 -.02270700  00000+0 -96941-2 0  1055",
                        "2 70369  97.2857 302.9671 0001724  65.5873  28.9683 15.86338576    10"
                    ]
                },
                {
                    "noradId": "70368",
                    "tle": [
                        "1 70368C 26073R   26105.40465278 -.02272100  00000+0 -97587-2 0  1054",
                        "2 70368  97.2857 302.9470 0001429  89.9697 262.1228 15.86213604    13"
                    ]
                },
                {
                    "noradId": "70367",
                    "tle": [
                        "1 70367C 26073Q   26105.42548611 -.02270700  00000+0 -98952-2 0  1059",
                        "2 70367  97.2860 302.9680 0001789  66.9475  40.6162 15.85906785    11"
                    ]
                },
                {
                    "noradId": "70366",
                    "tle": [
                        "1 70366C 26073P   26105.45187500 -.02272800  00000+0 -10048-1 0  1059",
                        "2 70366  97.2861 302.9948 0001589  83.9927 170.5391 15.85605644    14"
                    ]
                },
                {
                    "noradId": "70365",
                    "tle": [
                        "1 70365C 26073N   26105.35951389 -.02321200  00000+0 -10147-1 0  1050",
                        "2 70365  97.2862 302.8946 0001647  74.7252   9.3503 15.85867280    15"
                    ]
                },
                {
                    "noradId": "70364",
                    "tle": [
                        "1 70364C 26073M   26105.45534722 -.02278400  00000+0 -10259-1 0  1055",
                        "2 70364  97.2864 302.9954 0001663  82.9170 184.1920 15.85221564    18"
                    ]
                },
                {
                    "noradId": "70363",
                    "tle": [
                        "1 70363C 26073L   26105.38034722 -.02301800  00000+0 -10291-1 0  1058",
                        "2 70363  97.2866 302.9141 0001997  85.5666 110.2115 15.85381781    10"
                    ]
                },
                {
                    "noradId": "70362",
                    "tle": [
                        "1 70362C 26073K   26105.37618056 -.02317800  00000+0 -10460-1 0  1059",
                        "2 70362  97.2868 302.9086 0001965  83.5917  84.9025 15.85192748    11"
                    ]
                },
                {
                    "noradId": "70361",
                    "tle": [
                        "1 70361C 26073J   26105.40395833 -.02314800  00000+0 -10603-1 0  1053",
                        "2 70361  97.2869 302.9363 0001352  90.8976 232.3221 15.84876850    14"
                    ]
                },
                {
                    "noradId": "70360",
                    "tle": [
                        "1 70360C 26073H   26105.45187500 -.02304400  00000+0 -10774-1 0  1051",
                        "2 70360  97.2866 302.9859 0001781  84.7567 147.9975 15.84431850    18"
                    ]
                },
                {
                    "noradId": "70359",
                    "tle": [
                        "1 70359C 26073G   26105.42131944 -.02325700  00000+0 -10917-1 0  1052",
                        "2 70359  97.2869 302.9521 0001721  78.0485 336.8912 15.84358652    12"
                    ]
                },
                {
                    "noradId": "70358",
                    "tle": [
                        "1 70358C 26073F   26105.39701389 -.02338000  00000+0 -11030-1 0  1057",
                        "2 70358  97.2868 302.9247 0001828  92.9705 179.7532 15.84256728    16"
                    ]
                },
                {
                    "noradId": "70357",
                    "tle": [
                        "1 70357C 26073E   26105.37409722 -.02344900  00000+0 -11108-1 0  1052",
                        "2 70357  97.2867 302.8984 0002033  79.9237  58.4178 15.84172468    12"
                    ]
                },
                {
                    "noradId": "70356",
                    "tle": [
                        "1 70356C 26073D   26105.45326389 -.02322600  00000+0 -11300-1 0  1054",
                        "2 70356  97.2867 302.9814 0001921  82.2552 143.3831 15.83586619    12"
                    ]
                },
                {
                    "noradId": "70355",
                    "tle": [
                        "1 70355C 26073C   26105.45881944 -.02331700  00000+0 -11492-1 0  1059",
                        "2 70355  97.2864 302.9855 0001761  92.6408 160.8724 15.83313976    19"
                    ]
                },
                {
                    "noradId": "70354",
                    "tle": [
                        "1 70354C 26073B   26105.41645833 -.02358500  00000+0 -11629-1 0  1058",
                        "2 70354  97.2866 302.9390 0001605  82.6320 285.7104 15.83318223    12"
                    ]
                },
                {
                    "noradId": "70353",
                    "tle": [
                        "1 70353C 26073A   26105.43729167 -.02342800  00000+0 -11737-1 0  1058",
                        "2 70353  97.2864 302.9596 0001920  72.8108  50.3453 15.82965643    18"
                    ]
                }
            ]
        }
    ],
    "config": {}
}